INTELSAT 23 (IS-23)     
1 38867U 12057A   26178.22544428 -.00000273  00000+0  00000+0 0  9993
2 38867   0.0109  34.9118 0000235 124.4833 144.0919  1.00271309 50056
FM-6                    
1 39360U 13058A   26178.21291523 -.00000004  00000+0  00000+0 0  9990
2 39360   0.0169  42.9683 0001705 137.1399  55.5624  1.00270137 46173
INTELSAT 30 (IS-30)     
1 40271U 14062A   26178.24862653 -.00000139  00000+0  00000+0 0  9999
2 40271   0.0238  49.7665 0001497 350.6451 229.4022  1.00270749  6895
DIRECTV 14              
1 40333U 14078B   26178.21629524 -.00000114  00000+0  00000+0 0  9993
2 40333   0.0108  19.8815 0000273  22.1858 211.8915  1.00270994 42144
DIRECTV 15              
1 40663U 15026A   26178.27844573 -.00000091  00000+0  00000+0 0  9996
2 40663   0.0171  59.1244 0000473  26.3791 187.2525  1.00270753 40567
SKY MEXICO-1            
1 40664U 15026B   26178.19003038 -.00000223  00000+0  00000+0 0  9998
2 40664   0.0154 341.9092 0002591 130.6397 152.3678  1.00272001 40555
INTELSAT 34 (IS-34)     
1 40874U 15039A   26178.22492428 -.00000274  00000+0  00000+0 0  9990
2 40874   0.0108  12.1742 0000772  29.5641 259.0762  1.00275995 39735
INTELSAT 31 (IS-31)     
1 41581U 16035A   26178.24862675 -.00000139  00000+0  00000+0 0  9990
2 41581   0.0144 289.9489 0000602 334.4134   5.4535  1.00271675 36784
INTELSAT 36 (IS-36)     
1 41747U 16053A   26177.84712437 -.00000012  00000+0  00000+0 0  9999
2 41747   0.0108  13.4633 0001739 328.7334 306.2396  1.00266822 36054
INTELSAT 32E (IS-32E)   
1 41945U 17007B   26178.15613579 -.00000257  00000+0  00000+0 0  9992
2 41945   0.0065  35.0163 0000589 325.5426 287.7361  1.00270867 34320
INTELSAT 35E (IS-35E)   
1 42818U 17041A   26178.23472596  .00000000  00000+0  00000+0 0  9996
2 42818   0.0278  25.1749 0002392  72.4170 227.7690  1.00269079 32919
INTELSAT 37E (IS-37E)   
1 42950U 17059A   26178.16107581 -.00000129  00000+0  00000+0 0  9996
2 42950   0.0043  88.3882 0002893   6.2338 220.6422  1.00271499 32163
AZERSPACE 2 (IS-38)     
1 43632U 18074A   26178.17355587  .00000000  00000+0  00000+0 0  9991
2 43632   0.0274  17.8346 0001709  80.2276 284.8179  1.00270667 28541
HORIZONS-3E             
1 43633U 18074B   26177.91297288 -.00000019  00000+0  00000+0 0  9997
2 43633   0.0051 291.0865 0000627  17.8683 103.7557  1.00268864 28436
AT&T T-16               
1 44333U 19034A   26178.21594858 -.00000103  00000+0  00000+0 0  9993
2 44333   0.0175  59.8481 0000370 275.1280 277.2365  1.00270236 25732
INTELSAT 39 (IS-39)     
1 44476U 19049B   26178.17684922  .00000000  00000+0  00000+0 0  9999
2 44476   0.0261  10.2979 0000895 340.7590  49.8511  1.00270156 25225
GALAXY 30 (G-30)        
1 46114U 20056C   26178.29303024  .00000000  00000+0  00000+0 0  9994
2 46114   0.0279  22.3418 0002305  72.1617 161.3777  1.00270950 21391
GALAXY 33 (G-33)        
1 54026U 22128A   26178.27935855  .00000091  00000+0  00000+0 0  9998
2 54026   0.0044   1.4515 0002077  90.5457 150.9618  1.00271681 13841
GALAXY 34 (G-34)        
1 54027U 22128B   26178.27192660  .00000071  00000+0  00000+0 0  9996
2 54027   0.0111  43.1970 0001944  59.8712 141.1998  1.00267054 14011
GALAXY 31 (G-31)        
1 54243U 22153A   26178.21196190  .00000000  00000+0  00000+0 0  9992
2 54243   0.0200  27.2429 0001658  74.1270 129.2578  1.00270016  7232
GALAXY 32 (G-32)        
1 54244U 22153B   26178.14666053 -.00000163  00000+0  00000+0 0  9996
2 54244   0.0132  33.1835 0002070  14.2142 189.6632  1.00271923 13243
GALAXY 35 (G-35)        
1 54741U 22170A   26178.28575045  .00000000  00000+0  00000+0 0  9991
2 54741   0.0196  14.7781 0002228  80.7780 189.6024  1.00269498 12991
GALAXY 36 (G-36)        
1 54742U 22170B   26178.14700720 -.00000174  00000+0  00000+0 0  9990
2 54742   0.0347 120.3355 0002887 328.9772 149.8739  1.00271496 12879
GALAXY 37 (G-37)        
1 57493U 23112A   26178.21083522  .00000060  00000+0  00000+0 0  9998
2 57493   0.0160  54.5707 0002256  38.7838 130.8704  1.00272000 10643
